[{"OBJECT_NAME":"DONGPO 10","OBJECT_ID":"2022-167H","EPOCH":"2026-03-09T22:44:56.137344","MEAN_MOTION":15.322785,"ECCENTRICITY":0.00061655,"INCLINATION":97.685,"RA_OF_ASC_NODE":235.0962,"ARG_OF_PERICENTER":106.9526,"MEAN_ANOMALY":253.2392,"EPHEMERIS_TYPE":0,"CLASSIFICATION_TYPE":"U","NORAD_CAT_ID":54689,"ELEMENT_SET_NO":999,"REV_AT_EPOCH":18015,"BSTAR":0.00049390523,"MEAN_MOTION_DOT":0.00015333,"MEAN_MOTION_DDOT":0},{"OBJECT_NAME":"STARLINK-34200","OBJECT_ID":"2025-113S","EPOCH":"2026-03-09T12:39:38.941056","MEAN_MOTION":15.30181298,"ECCENTRICITY":0.00013119,"INCLINATION":53.1591,"RA_OF_ASC_NODE":91.6416,"ARG_OF_PERICENTER":92.1992,"MEAN_ANOMALY":267.9159,"EPHEMERIS_TYPE":0,"CLASSIFICATION_TYPE":"U","NORAD_CAT_ID":64186,"ELEMENT_SET_NO":999,"REV_AT_EPOCH":4504,"BSTAR":0.0010373259,"MEAN_MOTION_DOT":0.00030472,"MEAN_MOTION_DDOT":0}]
